[{"OBJECT_NAME":"MONITOR-4 (RS57S)","OBJECT_ID":"2023-091S","EPOCH":"2026-03-09T23:02:36.101184","MEAN_MOTION":15.25833519,"ECCENTRICITY":0.00137053,"INCLINATION":97.5193,"RA_OF_ASC_NODE":131.7407,"ARG_OF_PERICENTER":91.587,"MEAN_ANOMALY":268.6938,"EPHEMERIS_TYPE":0,"CLASSIFICATION_TYPE":"U","NORAD_CAT_ID":57182,"ELEMENT_SET_NO":999,"REV_AT_EPOCH":14915,"BSTAR":0.00052093098,"MEAN_MOTION_DOT":0.000133,"MEAN_MOTION_DDOT":0},{"OBJECT_NAME":"STARLINK-34055","OBJECT_ID":"2025-092R","EPOCH":"2026-03-09T15:18:54.957312","MEAN_MOTION":15.27570771,"ECCENTRICITY":0.000183,"INCLINATION":42.9959,"RA_OF_ASC_NODE":173.0806,"ARG_OF_PERICENTER":290.3213,"MEAN_ANOMALY":69.7442,"EPHEMERIS_TYPE":0,"CLASSIFICATION_TYPE":"U","NORAD_CAT_ID":63819,"ELEMENT_SET_NO":999,"REV_AT_EPOCH":4860,"BSTAR":0.0013864,"MEAN_MOTION_DOT":0.00038075,"MEAN_MOTION_DDOT":0}]
